start=new Date('2022-06-30T00:00:00.000Z').valueOf();
sats=[{"MEAN_MOTION_DDOT":"0.0000000000000","PERIOD":"95.438","ECCENTRICITY":"0.00020180","FILE":"3505610","CENTER_NAME":"EARTH","NORAD_CAT_ID":"51110","MEAN_MOTION_DOT":"-0.00000445","OBJECT_NAME":"STARLINK-3344","REF_FRAME":"TEME","CLASSIFICATION_TYPE":"U","BSTAR":"-0.00000983040000","TLE_LINE1":"1 51110U 22005G   22180.85615126 -.00000445  00000-0 -98304-5 0  9998","TLE_LINE2":"2 51110  53.2195 224.2715 0002018  42.9513 317.1636 15.08834252 25252","DECAY_DATE":null,"PERIAPSIS":"538.367","OBJECT_ID":"2022-005G","MEAN_ANOMALY":"317.1636","SITE":"AFETR","MEAN_MOTION":"15.08834252","MEAN_ELEMENT_THEORY":"SGP4","INCLINATION":"53.2195","RCS_SIZE":"LARGE","APOAPSIS":"541.159","EPOCH":"2022-06-29T20:32:51.468864","EPHEMERIS_TYPE":"0","ELEMENT_SET_NO":"999","COUNTRY_CODE":"US","TIME_SYSTEM":"UTC","RA_OF_ASC_NODE":"224.2715","OBJECT_TYPE":"PAYLOAD","LAUNCH_DATE":"2022-01-19","REV_AT_EPOCH":"2525","GP_ID":"207120868","SEMIMAJOR_AXIS":"6917.898","ARG_OF_PERICENTER":"42.9513"},{"OBJECT_NAME":"STARLINK-3173","MEAN_MOTION_DOT":"-0.00000281","REF_FRAME":"TEME","CLASSIFICATION_TYPE":"U","BSTAR":"0.00000044159000","ECCENTRICITY":"0.00018210","MEAN_MOTION_DDOT":"0.0000000000000","PERIOD":"95.438","FILE":"3505485","NORAD_CAT_ID":"51111","CENTER_NAME":"EARTH","SITE":"AFETR","MEAN_MOTION":"15.08832478","TLE_LINE2":"2 51111  53.2150 226.1609 0001821  57.1471 302.9696 15.08832478 25187","TLE_LINE1":"1 51111U 22005H   22180.43294392 -.00000281  00000-0  44159-6 0  9998","MEAN_ANOMALY":"302.9696","OBJECT_ID":"2022-005H","DECAY_DATE":null,"PERIAPSIS":"538.509","EPHEMERIS_TYPE":"0","ELEMENT_SET_NO":"999","EPOCH":"2022-06-29T10:23:26.354688","RA_OF_ASC_NODE":"226.1609","TIME_SYSTEM":"UTC","LAUNCH_DATE":"2022-01-19","OBJECT_TYPE":"PAYLOAD","COUNTRY_CODE":"US","MEAN_ELEMENT_THEORY":"SGP4","APOAPSIS":"541.028","RCS_SIZE":"LARGE","INCLINATION":"53.2150","SEMIMAJOR_AXIS":"6917.903","GP_ID":"207094195","ARG_OF_PERICENTER":"57.1471","REV_AT_EPOCH":"2518"},{"REV_AT_EPOCH":"2525","ARG_OF_PERICENTER":"43.3235","SEMIMAJOR_AXIS":"6917.881","GP_ID":"207121869","APOAPSIS":"541.163","INCLINATION":"53.2180","RCS_SIZE":"LARGE","MEAN_ELEMENT_THEORY":"SGP4","TIME_SYSTEM":"UTC","RA_OF_ASC_NODE":"224.2790","LAUNCH_DATE":"2022-01-19","OBJECT_TYPE":"PAYLOAD","COUNTRY_CODE":"US","EPHEMERIS_TYPE":"0","ELEMENT_SET_NO":"999","EPOCH":"2022-06-29T20:27:33.242976","OBJECT_ID":"2022-005J","MEAN_ANOMALY":"316.7918","DECAY_DATE":null,"PERIAPSIS":"538.328","TLE_LINE2":"2 51112  53.2180 224.2790 0002049  43.3235 316.7918 15.08839812 25256","TLE_LINE1":"1 51112U 22005J   22180.85246809 -.00000036  00000-0  15867-4 0  9995","MEAN_MOTION":"15.08839812","SITE":"AFETR","CENTER_NAME":"EARTH","FILE":"3505610","NORAD_CAT_ID":"51112","ECCENTRICITY":"0.00020490","MEAN_MOTION_DDOT":"0.0000000000000","PERIOD":"95.438","REF_FRAME":"TEME","CLASSIFICATION_TYPE":"U","BSTAR":"0.00001586700000","MEAN_MOTION_DOT":"-0.00000036","OBJECT_NAME":"STARLINK-3374"},{"REF_FRAME":"TEME","CLASSIFICATION_TYPE":"U","BSTAR":"0.00003511200000","OBJECT_NAME":"STARLINK-3372","MEAN_MOTION_DOT":"0.00000271","FILE":"3505485","CENTER_NAME":"EARTH","NORAD_CAT_ID":"51113","ECCENTRICITY":"0.00019140","MEAN_MOTION_DDOT":"0.0000000000000","PERIOD":"95.438","SITE":"AFETR","MEAN_MOTION":"15.08830042","OBJECT_ID":"2022-005K","MEAN_ANOMALY":"307.8813","DECAY_DATE":null,"PERIAPSIS":"538.452","TLE_LINE2":"2 51113  53.2157 225.8148 0001914  52.2352 307.8813 15.08830042 25198","TLE_LINE1":"1 51113U 22005K   22180.51023106  .00000271  00000-0  35112-4 0  9997","RA_OF_ASC_NODE":"225.8148","TIME_SYSTEM":"UTC","OBJECT_TYPE":"PAYLOAD","LAUNCH_DATE":"2022-01-19","COUNTRY_CODE":"US","EPHEMERIS_TYPE":"0","ELEMENT_SET_NO":"999","EPOCH":"2022-06-29T12:14:43.963584","APOAPSIS":"541.100","INCLINATION":"53.2157","RCS_SIZE":"LARGE","MEAN_ELEMENT_THEORY":"SGP4","ARG_OF_PERICENTER":"52.2352","GP_ID":"207092693","SEMIMAJOR_AXIS":"6917.911","REV_AT_EPOCH":"2519"},{"MEAN_MOTION_DOT":"-0.00000224","OBJECT_NAME":"STARLINK-3375","REF_FRAME":"TEME","BSTAR":"0.00000401580000","CLASSIFICATION_TYPE":"U","MEAN_MOTION_DDOT":"0.0000000000000","PERIOD":"95.438","ECCENTRICITY":"0.00019920","NORAD_CAT_ID":"51114","FILE":"3505610","CENTER_NAME":"EARTH","MEAN_MOTION":"15.08830110","SITE":"AFETR","TLE_LINE1":"1 51114U 22005L   22180.85982954 -.00000224  00000-0  40158-5 0  9996","TLE_LINE2":"2 51114  53.2183 224.2570 0001992  44.2938 315.8213 15.08830110 25253","DECAY_DATE":null,"PERIAPSIS":"538.398","OBJECT_ID":"2022-005L","MEAN_ANOMALY":"315.8213","EPOCH":"2022-06-29T20:38:09.272256","EPHEMERIS_TYPE":"0","ELEMENT_SET_NO":"999","COUNTRY_CODE":"US","TIME_SYSTEM":"UTC","RA_OF_ASC_NODE":"224.2570","LAUNCH_DATE":"2022-01-19","OBJECT_TYPE":"PAYLOAD","MEAN_ELEMENT_THEORY":"SGP4","RCS_SIZE":"LARGE","INCLINATION":"53.2183","APOAPSIS":"541.154","GP_ID":"207120368","SEMIMAJOR_AXIS":"6917.911","ARG_OF_PERICENTER":"44.2938","REV_AT_EPOCH":"2525"},{"SEMIMAJOR_AXIS":"6917.908","GP_ID":"207093695","ARG_OF_PERICENTER":"49.9897","REV_AT_EPOCH":"2519","EPHEMERIS_TYPE":"0","ELEMENT_SET_NO":"999","EPOCH":"2022-06-29T12:04:07.881600","RA_OF_ASC_NODE":"225.8477","TIME_SYSTEM":"UTC","OBJECT_TYPE":"PAYLOAD","LAUNCH_DATE":"2022-01-19","COUNTRY_CODE":"US","MEAN_ELEMENT_THEORY":"SGP4","APOAPSIS":"541.081","RCS_SIZE":"LARGE","INCLINATION":"53.2159","SITE":"AFETR","MEAN_MOTION":"15.08830943","TLE_LINE2":"2 51115  53.2159 225.8477 0001890  49.9897 310.1260 15.08830943 25190","TLE_LINE1":"1 51115U 22005M   22180.50286900 -.00000292  00000-0 -23162-6 0  9990","MEAN_ANOMALY":"310.1260","OBJECT_ID":"2022-005M","DECAY_DATE":null,"PERIAPSIS":"538.466","MEAN_MOTION_DOT":"-0.00000292","OBJECT_NAME":"STARLINK-3397","REF_FRAME":"TEME","BSTAR":"-0.00000023162000","CLASSIFICATION_TYPE":"U","ECCENTRICITY":"0.00018900","MEAN_MOTION_DDOT":"0.0000000000000","PERIOD":"95.438","NORAD_CAT_ID":"51115","FILE":"3505485","CENTER_NAME":"EARTH"},{"ARG_OF_PERICENTER":"37.7440","GP_ID":"207121369","SEMIMAJOR_AXIS":"6917.875","REV_AT_EPOCH":"2524","TIME_SYSTEM":"UTC","RA_OF_ASC_NODE":"224.2934","OBJECT_TYPE":"PAYLOAD","LAUNCH_DATE":"2022-01-19","COUNTRY_CODE":"US","EPHEMERIS_TYPE":"0","ELEMENT_SET_NO":"999","EPOCH":"2022-06-29T20:22:15.065472","APOAPSIS":"541.372","INCLINATION":"53.2163","RCS_SIZE":"LARGE","MEAN_ELEMENT_THEORY":"SGP4","SITE":"AFETR","MEAN_MOTION":"15.08841662","OBJECT_ID":"2022-005N","MEAN_ANOMALY":"322.3718","DECAY_DATE":null,"PERIAPSIS":"538.108","TLE_LINE2":"2 51116  53.2163 224.2934 0002359  37.7440 322.3718 15.08841662 25246","TLE_LINE1":"1 51116U 22005N   22180.84878548  .00000435  00000-0  45461-4 0  9994","REF_FRAME":"TEME","BSTAR":"0.00004546100000","CLASSIFICATION_TYPE":"U","MEAN_MOTION_DOT":"0.00000435","OBJECT_NAME":"STARLINK-3243","FILE":"3505610","NORAD_CAT_ID":"51116","CENTER_NAME":"EARTH","ECCENTRICITY":"0.00023590","MEAN_MOTION_DDOT":"0.0000000000000","PERIOD":"95.437"},{"ARG_OF_PERICENTER":"56.3764","SEMIMAJOR_AXIS":"6917.901","GP_ID":"207093194","REV_AT_EPOCH":"2518","TIME_SYSTEM":"UTC","RA_OF_ASC_NODE":"226.2099","LAUNCH_DATE":"2022-01-19","OBJECT_TYPE":"PAYLOAD","COUNTRY_CODE":"US","EPHEMERIS_TYPE":"0","ELEMENT_SET_NO":"999","EPOCH":"2022-06-29T10:07:33.011040","APOAPSIS":"541.062","INCLINATION":"53.2151","RCS_SIZE":"LARGE","MEAN_ELEMENT_THEORY":"SGP4","SITE":"AFETR","MEAN_MOTION":"15.08833388","MEAN_ANOMALY":"303.7406","OBJECT_ID":"2022-005P","DECAY_DATE":null,"PERIAPSIS":"538.469","TLE_LINE2":"2 51117  53.2151 226.2099 0001874  56.3764 303.7406 15.08833388 25181","TLE_LINE1":"1 51117U 22005P   22180.42190985 -.00002181  00000-0 -11901-3 0  9994","REF_FRAME":"TEME","CLASSIFICATION_TYPE":"U","BSTAR":"-0.00011901000000","OBJECT_NAME":"STARLINK-3391","MEAN_MOTION_DOT":"-0.00002181","NORAD_CAT_ID":"51117","FILE":"3505485","CENTER_NAME":"EARTH","ECCENTRICITY":"0.00018740","MEAN_MOTION_DDOT":"0.0000000000000","PERIOD":"95.438"},{"MEAN_ELEMENT_THEORY":"SGP4","APOAPSIS":"541.046","INCLINATION":"53.2147","RCS_SIZE":"LARGE","EPHEMERIS_TYPE":"0","ELEMENT_SET_NO":"999","EPOCH":"2022-06-29T12:09:24.888384","TIME_SYSTEM":"UTC","RA_OF_ASC_NODE":"225.8293","OBJECT_TYPE":"PAYLOAD","LAUNCH_DATE":"2022-01-19","COUNTRY_CODE":"US","REV_AT_EPOCH":"2519","SEMIMAJOR_AXIS":"6917.897","GP_ID":"207092944","ARG_OF_PERICENTER":"45.4946","ECCENTRICITY":"0.00018560","MEAN_MOTION_DDOT":"0.0000000000000","PERIOD":"95.438","CENTER_NAME":"EARTH","FILE":"3505485","NORAD_CAT_ID":"51118","OBJECT_NAME":"STARLINK-3394","MEAN_MOTION_DOT":"0.00000851","REF_FRAME":"TEME","CLASSIFICATION_TYPE":"U","BSTAR":"0.00007160500000","TLE_LINE2":"2 51118  53.2147 225.8293 0001856  45.4946 314.6197 15.08834625 25193","TLE_LINE1":"1 51118U 22005Q   22180.50653806  .00000851  00000-0  71605-4 0  9998","MEAN_ANOMALY":"314.6197","OBJECT_ID":"2022-005Q","DECAY_DATE":null,"PERIAPSIS":"538.478","SITE":"AFETR","MEAN_MOTION":"15.08834625"},{"REV_AT_EPOCH":"2518","ARG_OF_PERICENTER":"45.8513","GP_ID":"207094196","SEMIMAJOR_AXIS":"6917.873","APOAPSIS":"541.037","RCS_SIZE":"LARGE","INCLINATION":"53.2165","MEAN_ELEMENT_THEORY":"SGP4","LAUNCH_DATE":"2022-01-19","OBJECT_TYPE":"PAYLOAD","RA_OF_ASC_NODE":"226.2394","TIME_SYSTEM":"UTC","COUNTRY_CODE":"US","ELEMENT_SET_NO":"999","EPHEMERIS_TYPE":"0","EPOCH":"2022-06-29T10:02:13.325856","MEAN_ANOMALY":"314.2633","OBJECT_ID":"2022-005R","PERIAPSIS":"538.440","DECAY_DATE":null,"TLE_LINE2":"2 51119  53.2165 226.2394 0001877  45.8513 314.2633 15.08842311 25189","TLE_LINE1":"1 51119U 22005R   22180.41820979  .00000793  00000-0  67933-4 0  9990","SITE":"AFETR","MEAN_MOTION":"15.08842311","CENTER_NAME":"EARTH","FILE":"3505485","NORAD_CAT_ID":"51119","ECCENTRICITY":"0.00018770","PERIOD":"95.437","MEAN_MOTION_DDOT":"0.0000000000000","CLASSIFICATION_TYPE":"U","BSTAR":"0.00006793300000","REF_FRAME":"TEME","OBJECT_NAME":"STARLINK-3390","MEAN_MOTION_DOT":"0.00000793"}];
